{"type":"FeatureCollection","features":[{"type":"Feature","properties":{"slug":"malden","name":"Malden"},"geometry":{"type":"Polygon","coordinates":[[[-71.08943,42.42672],[-71.08588,42.41791],[-71.08349,42.41601],[-71.08172,42.41516],[-71.07991,42.41517],[-71.07713,42.41328],[-71.0763,42.41306],[-71.07549,42.41328],[-71.07453,42.41253],[-71.0732,42.413],[-71.0733,42.4148],[-71.06439,42.41527],[-71.06048,42.41594],[-71.05047,42.42289],[-71.02823,42.4242],[-71.02038,42.43825],[-71.02584,42.44471],[-71.08292,42.43884],[-71.08212,42.44394],[-71.08564,42.44469],[-71.08803,42.42903],[-71.08906,42.42912],[-71.08943,42.42672]]]}},{"type":"Feature","properties":{"slug":"somerville","name":"Somerville"},"geometry":{"type":"Polygon","coordinates":[[[-71.13462,42.40438],[-71.1313,42.40158],[-71.12284,42.39224],[-71.12097,42.39371],[-71.11708,42.38958],[-71.11801,42.3891],[-71.11745,42.38839],[-71.11819,42.38801],[-71.11558,42.38516],[-71.11166,42.38175],[-71.1107,42.38169],[-71.10785,42.37937],[-71.10846,42.37911],[-71.1032,42.37433],[-71.09314,42.37421],[-71.08978,42.37395],[-71.08609,42.37306],[-71.08544,42.37404],[-71.08444,42.3733],[-71.08241,42.37341],[-71.0812,42.37406],[-71.08036,42.37412],[-71.07996,42.37381],[-71.07899,42.37417],[-71.0776,42.37356],[-71.07598,42.37403],[-71.0742,42.37253],[-71.07269,42.37322],[-71.07566,42.3802],[-71.0807,42.38104],[-71.08097,42.38232],[-71.07971,42.38292],[-71.0735,42.3918],[-71.076,42.3964],[-71.08342,42.40001],[-71.08569,42.40065],[-71.09199,42.3989],[-71.09669,42.40046],[-71.10039,42.39622],[-71.11237,42.40023],[-71.11387,42.40099],[-71.11549,42.40291],[-71.11554,42.40515],[-71.12175,42.40712],[-71.12156,42.40743],[-71.12388,42.40823],[-71.12329,42.40917],[-71.12569,42.40998],[-71.12615,42.40927],[-71.12804,42.41071],[-71.12698,42.41231],[-71.12992,42.41333],[-71.12684,42.4168],[-71.12712,42.41721],[-71.12695,42.41784],[-71.12743,42.41813],[-71.13141,42.41698],[-71.13161,42.41551],[-71.13244,42.41522],[-71.13289,42.41197],[-71.13222,42.40952],[-71.13429,42.4064],[-71.13462,42.40438]]]}},{"type":"Feature","properties":{"slug":"saugus","name":"Saugus"},"geometry":{"type":"Polygon","coordinates":[[[-71.05389,42.47878],[-71.05421,42.4769],[-71.02584,42.44471],[-71.01876,42.45012],[-71.01192,42.44216],[-71.0095,42.44096],[-71.01236,42.43974],[-71.0118,42.439],[-71.01114,42.43906],[-71.01093,42.4386],[-71.01067,42.43874],[-71.0101,42.4383],[-71.01062,42.4381],[-71.01074,42.43776],[-71.01042,42.43758],[-71.01064,42.4372],[-71.01144,42.43669],[-71.01099,42.43654],[-71.01142,42.43599],[-71.0108,42.4354],[-71.01078,42.43457],[-71.00858,42.43435],[-71.00697,42.43384],[-71.00569,42.43298],[-71.00215,42.43261],[-70.99986,42.4313],[-70.99571,42.43086],[-70.99478,42.4312],[-70.99202,42.43414],[-70.99012,42.43488],[-70.9878,42.434],[-70.98575,42.43256],[-70.98229,42.4313],[-70.97945,42.43282],[-70.97519,42.4369],[-70.97159,42.4427],[-70.96859,42.4444],[-70.97908,42.45086],[-70.9814,42.45127],[-70.98383,42.45238],[-70.98335,42.45381],[-70.97969,42.4553],[-70.97942,42.45582],[-70.97949,42.4562],[-70.98311,42.45861],[-70.98485,42.45835],[-70.98597,42.45723],[-70.98616,42.45499],[-70.98669,42.4546],[-70.98749,42.455],[-70.9874,42.45716],[-70.98568,42.45922],[-70.98561,42.4597],[-70.98636,42.45977],[-70.98808,42.45872],[-70.98914,42.45969],[-71.00308,42.49641],[-71.01162,42.50165],[-71.03584,42.50519],[-71.03622,42.5042],[-71.03735,42.50333],[-71.03827,42.50326],[-71.03818,42.50295],[-71.03851,42.50276],[-71.03975,42.50303],[-71.0406,42.5026],[-71.04222,42.50261],[-71.0425,42.502],[-71.04376,42.50125],[-71.04373,42.50017],[-71.04247,42.49935],[-71.04203,42.49815],[-71.04094,42.49773],[-71.04108,42.49748],[-71.03985,42.49605],[-71.04521,42.48872],[-71.05025,42.48653],[-71.05262,42.4861],[-71.05389,42.47878]]]}},{"type":"Feature","properties":{"slug":"revere","name":"Revere"},"geometry":{"type":"Polygon","coordinates":[[[-71.03301,42.41461],[-71.03318,42.41421],[-71.02904,42.41035],[-71.02711,42.40778],[-71.02689,42.40655],[-71.02624,42.40593],[-71.0249,42.4059],[-71.02385,42.40532],[-71.02328,42.40554],[-71.02286,42.40512],[-71.02244,42.40547],[-71.02044,42.40511],[-71.02031,42.40483],[-71.02119,42.40423],[-71.02083,42.40351],[-71.01872,42.40371],[-71.01783,42.40288],[-71.01703,42.40272],[-71.01301,42.40286],[-71.0094,42.40118],[-71.00963,42.40017],[-71.01339,42.3974],[-71.01127,42.39659],[-71.01193,42.39575],[-71.00895,42.39519],[-71.00586,42.39389],[-71.00141,42.39674],[-70.99816,42.39689],[-70.99647,42.39631],[-70.99536,42.39381],[-70.99382,42.39292],[-70.98977,42.39324],[-70.98744,42.39274],[-70.98711,42.39198],[-70.98757,42.39058],[-70.98751,42.38923],[-70.98729,42.38873],[-70.98605,42.38812],[-70.9833,42.38939],[-70.98299,42.39069],[-70.98145,42.39084],[-70.95949,42.4075],[-70.96209,42.4124],[-70.95909,42.4186],[-70.95299,42.4294],[-70.95139,42.437],[-70.95079,42.4443],[-70.96629,42.4435],[-70.96859,42.4444],[-70.97159,42.4427],[-70.97519,42.4369],[-70.97989,42.4324],[-70.98229,42.4313],[-70.98575,42.43256],[-70.9878,42.434],[-70.99012,42.43488],[-70.99202,42.43414],[-70.99478,42.4312],[-70.99571,42.43086],[-70.99986,42.4313],[-71.00215,42.43261],[-71.00569,42.43298],[-71.00697,42.43384],[-71.00858,42.43435],[-71.01078,42.43457],[-71.0108,42.4354],[-71.01142,42.43599],[-71.01099,42.43654],[-71.01144,42.43669],[-71.01064,42.4372],[-71.01042,42.43758],[-71.01074,42.43776],[-71.01062,42.4381],[-71.0101,42.4383],[-71.01067,42.43874],[-71.01093,42.4386],[-71.01114,42.43906],[-71.0118,42.439],[-71.01236,42.43974],[-71.0095,42.44096],[-71.01192,42.44216],[-71.01876,42.45012],[-71.02584,42.44471],[-71.02038,42.43825],[-71.02858,42.42357],[-71.03301,42.41461]]]}},{"type":"Feature","properties":{"slug":"tewksbury","name":"Tewksbury"},"geometry":{"type":"Polygon","coordinates":[[[-71.29629,42.61267],[-71.19253,42.56454],[-71.17519,42.59227],[-71.16488,42.59802],[-71.18135,42.60837],[-71.18205,42.60845],[-71.18045,42.60883],[-71.18068,42.60855],[-71.18025,42.60852],[-71.17998,42.60896],[-71.18045,42.60933],[-71.1792,42.60874],[-71.17948,42.60943],[-71.17821,42.60928],[-71.17852,42.60868],[-71.17749,42.60896],[-71.17803,42.60964],[-71.17727,42.61005],[-71.1774,42.61063],[-71.17843,42.61096],[-71.17807,42.61134],[-71.1772,42.61138],[-71.1775,42.61164],[-71.17718,42.61248],[-71.17795,42.61318],[-71.17685,42.61318],[-71.17692,42.61411],[-71.17612,42.61461],[-71.17269,42.61514],[-71.17221,42.61556],[-71.17221,42.61628],[-71.17176,42.61654],[-71.25619,42.65715],[-71.25848,42.65692],[-71.26435,42.65767],[-71.27515,42.65622],[-71.27202,42.64922],[-71.27119,42.64424],[-71.27471,42.62886],[-71.27779,42.62085],[-71.28343,42.6153],[-71.29629,42.61267]]]}},{"type":"Feature","properties":{"slug":"boston","name":"Boston"},"geometry":{"type":"Polygon","coordinates":[[[-71.19123,42.283],[-71.19097,42.28212],[-71.18993,42.28129],[-71.18777,42.28023],[-71.18536,42.27959],[-71.18305,42.27585],[-71.17746,42.27687],[-71.17476,42.27584],[-71.17442,42.27504],[-71.17482,42.27353],[-71.17295,42.2703],[-71.1745,42.26865],[-71.17432,42.26718],[-71.17356,42.2667],[-71.1717,42.26628],[-71.17132,42.26535],[-71.15858,42.25515],[-71.15231,42.25834],[-71.14664,42.25576],[-71.14268,42.236],[-71.13075,42.22791],[-71.1301,42.22867],[-71.1292,42.22897],[-71.12753,42.23112],[-71.12661,42.23126],[-71.12523,42.23206],[-71.12452,42.2329],[-71.12472,42.23375],[-71.12446,42.23416],[-71.1226,42.23444],[-71.12264,42.23538],[-71.12408,42.23639],[-71.12476,42.23743],[-71.12568,42.2379],[-71.12638,42.23916],[-71.10935,42.24799],[-71.10954,42.25541],[-71.11333,42.25899],[-71.11146,42.26077],[-71.10895,42.2613],[-71.10746,42.26065],[-71.105,42.2608],[-71.10393,42.25978],[-71.10269,42.25988],[-71.09886,42.26259],[-71.09748,42.26309],[-71.09643,42.26474],[-71.09413,42.26713],[-71.09082,42.26648],[-71.09026,42.26664],[-71.08986,42.26778],[-71.09019,42.26908],[-71.08915,42.26974],[-71.08261,42.26864],[-71.08085,42.26932],[-71.07888,42.26958],[-71.07686,42.27045],[-71.07323,42.27031],[-71.07168,42.27085],[-71.06901,42.27066],[-71.06752,42.27151],[-71.06546,42.27101],[-71.06478,42.27017],[-71.06503,42.26929],[-71.0647,42.26861],[-71.0631,42.26734],[-71.06183,42.26721],[-71.06098,42.26745],[-71.05369,42.27182],[-71.05349,42.27246],[-71.05557,42.27505],[-71.05525,42.27634],[-71.0544,42.27702],[-71.0526,42.27767],[-71.04924,42.27806],[-71.04488,42.27627],[-71.04243,42.27733],[-71.04159,42.2781],[-71.04049,42.2819],[-71.03929,42.2838],[-71.03789,42.2849],[-71.03529,42.2888],[-71.04129,42.3001],[-71.04169,42.3053],[-71.0284,42.3088],[-71.02209,42.3056],[-71.01539,42.3067],[-71.00999,42.30518],[-71.00209,42.3087],[-70.99859,42.312],[-70.98869,42.3136],[-70.98178,42.30838],[-70.97599,42.3001],[-70.96019,42.2995],[-70.94899,42.3013],[-70.93709,42.3111],[-70.92719,42.3101],[-70.91709,42.3142],[-70.90569,42.317],[-70.89429,42.3724],[-70.74949,42.37334],[-70.74885,42.37375],[-70.7488,42.40021],[-70.74949,42.40082],[-70.85144,42.39321],[-70.90129,42.3841],[-70.91789,42.386],[-70.97289,42.3536],[-70.98559,42.3568],[-70.9866,42.36457],[-71.0007,42.36464],[-71.01036,42.36503],[-71.00612,42.37605],[-71.00021,42.37775],[-70.99933,42.37774],[-70.99669,42.37874],[-70.99465,42.38115],[-70.99424,42.38465],[-70.98828,42.38711],[-70.98667,42.38707],[-70.98605,42.38812],[-70.98729,42.38873],[-70.98751,42.38923],[-70.98757,42.39058],[-70.98711,42.39198],[-70.98744,42.39274],[-70.98977,42.39324],[-70.99382,42.39292],[-70.99536,42.39381],[-70.99647,42.39631],[-70.99831,42.39693],[-71.00141,42.39674],[-71.00586,42.39389],[-71.00895,42.39519],[-71.01193,42.39575],[-71.01127,42.39659],[-71.01339,42.3974],[-71.01609,42.3959],[-71.01779,42.3907],[-71.02051,42.38764],[-71.02243,42.38637],[-71.02771,42.38404],[-71.03199,42.3846],[-71.03323,42.38491],[-71.03497,42.38588],[-71.03951,42.38685],[-71.04326,42.38359],[-71.0443,42.38321],[-71.04819,42.38569],[-71.0574,42.3873],[-71.0657,42.3866],[-71.0709,42.389],[-71.06912,42.39178],[-71.06703,42.39413],[-71.06686,42.39498],[-71.06737,42.3953],[-71.06904,42.39388],[-71.06932,42.39402],[-71.0727,42.3908],[-71.0735,42.3918],[-71.07971,42.38292],[-71.08097,42.38232],[-71.0807,42.38104],[-71.07566,42.3802],[-71.07247,42.37266],[-71.06711,42.37182],[-71.06398,42.36893],[-71.06948,42.36905],[-71.07479,42.36377],[-71.07609,42.36038],[-71.07795,42.35874],[-71.091,42.3544],[-71.09724,42.35319],[-71.10432,42.3524],[-71.11008,42.35255],[-71.11283,42.353],[-71.11591,42.35453],[-71.11707,42.35587],[-71.11717,42.357],[-71.11658,42.35957],[-71.11687,42.36589],[-71.11769,42.36815],[-71.11896,42.36876],[-71.12204,42.3687],[-71.12383,42.36916],[-71.12458,42.36964],[-71.12602,42.37195],[-71.12701,42.37284],[-71.12863,42.37374],[-71.13017,42.37396],[-71.13207,42.37359],[-71.1331,42.3727],[-71.13309,42.37198],[-71.13176,42.36986],[-71.13294,42.36849],[-71.13644,42.36689],[-71.13969,42.36448],[-71.14064,42.36442],[-71.14329,42.36508],[-71.14449,42.36482],[-71.14634,42.36247],[-71.14781,42.36131],[-71.15248,42.36068],[-71.15525,42.35989],[-71.15928,42.3599],[-71.16301,42.35847],[-71.16422,42.35863],[-71.16616,42.35991],[-71.16761,42.36009],[-71.17392,42.35347],[-71.17485,42.35034],[-71.16668,42.3401],[-71.16681,42.33929],[-71.16863,42.33863],[-71.16922,42.33807],[-71.16889,42.33583],[-71.16757,42.33344],[-71.16273,42.33396],[-71.1613,42.33378],[-71.15933,42.33277],[-71.15704,42.33039],[-71.14985,42.33463],[-71.15046,42.33497],[-71.15006,42.33539],[-71.14829,42.33581],[-71.14874,42.33687],[-71.14616,42.33744],[-71.14661,42.33854],[-71.14421,42.34002],[-71.14194,42.34001],[-71.14133,42.34105],[-71.13515,42.34602],[-71.12901,42.3492],[-71.12858,42.34983],[-71.12646,42.35019],[-71.12407,42.35155],[-71.12294,42.35142],[-71.12286,42.35186],[-71.10657,42.34991],[-71.10721,42.34705],[-71.10552,42.34381],[-71.10803,42.34248],[-71.10849,42.34184],[-71.10955,42.34149],[-71.11058,42.34044],[-71.11156,42.33738],[-71.11071,42.33631],[-71.11099,42.33576],[-71.11053,42.33533],[-71.11321,42.33246],[-71.11358,42.33047],[-71.11504,42.32731],[-71.11597,42.32638],[-71.11654,42.32394],[-71.1184,42.32345],[-71.11887,42.32286],[-71.11944,42.32274],[-71.12011,42.32283],[-71.12153,42.32388],[-71.12337,42.32257],[-71.12371,42.32272],[-71.13186,42.31318],[-71.1365,42.3062],[-71.1401,42.30217],[-71.14688,42.29728],[-71.15211,42.29459],[-71.1647,42.30383],[-71.17864,42.2946],[-71.19123,42.283]]]}},{"type":"Feature","properties":{"slug":"wakefield","name":"Wakefield"},"geometry":{"type":"Polygon","coordinates":[[[-71.10072,42.50226],[-71.09011,42.50126],[-71.0855,42.49226],[-71.07524,42.48801],[-71.0766,42.47749],[-71.07771,42.47739],[-71.07815,42.47402],[-71.0693,42.47164],[-71.06136,42.47266],[-71.06132,42.4742],[-71.05336,42.47593],[-71.05421,42.4769],[-71.05262,42.4861],[-71.05025,42.48653],[-71.04521,42.48872],[-71.03985,42.49605],[-71.04108,42.49748],[-71.04094,42.49773],[-71.04203,42.49815],[-71.0425,42.49938],[-71.04367,42.50006],[-71.04376,42.50125],[-71.0425,42.502],[-71.04222,42.50261],[-71.0406,42.5026],[-71.03975,42.50303],[-71.03862,42.50273],[-71.03818,42.50295],[-71.03827,42.50326],[-71.03696,42.50353],[-71.03584,42.50484],[-71.03574,42.50574],[-71.0349,42.50705],[-71.03563,42.50756],[-71.03555,42.50831],[-71.0363,42.509],[-71.03646,42.50969],[-71.03705,42.51],[-71.0365,42.51083],[-71.03656,42.51243],[-71.0383,42.51375],[-71.03838,42.51419],[-71.03947,42.51446],[-71.03827,42.51569],[-71.0383,42.51624],[-71.03891,42.51634],[-71.03889,42.51674],[-71.04026,42.51742],[-71.04013,42.51881],[-71.04111,42.52036],[-71.04091,42.52172],[-71.03988,42.52241],[-71.0386,42.52396],[-71.0389,42.52458],[-71.04,42.52519],[-71.04098,42.52626],[-71.05766,42.52418],[-71.05845,42.52361],[-71.06007,42.52431],[-71.06074,42.52524],[-71.06148,42.52503],[-71.06203,42.52428],[-71.06328,42.52466],[-71.06424,42.5244],[-71.06635,42.52481],[-71.06712,42.52537],[-71.06757,42.52468],[-71.07515,42.53104],[-71.08108,42.52547],[-71.08351,42.52549],[-71.09677,42.51168],[-71.09746,42.51025],[-71.09556,42.50897],[-71.09412,42.50736],[-71.09429,42.50709],[-71.09965,42.50643],[-71.10072,42.50226]]]}},{"type":"Feature","properties":{"slug":"everett","name":"Everett"},"geometry":{"type":"Polygon","coordinates":[[[-71.07642,42.39777],[-71.07559,42.39525],[-71.0727,42.3908],[-71.06932,42.39402],[-71.06904,42.39388],[-71.06737,42.3953],[-71.06686,42.39498],[-71.06741,42.39348],[-71.06912,42.39178],[-71.0709,42.389],[-71.0657,42.3866],[-71.0574,42.3873],[-71.0553,42.3871],[-71.05069,42.392],[-71.05,42.39347],[-71.05069,42.39458],[-71.05252,42.39487],[-71.0533,42.39539],[-71.05303,42.39674],[-71.05128,42.39779],[-71.05002,42.39757],[-71.04814,42.39663],[-71.04057,42.40198],[-71.03344,42.41338],[-71.03128,42.41843],[-71.02823,42.4242],[-71.05047,42.42289],[-71.06048,42.41594],[-71.06439,42.41527],[-71.0733,42.4148],[-71.0732,42.413],[-71.07211,42.41208],[-71.07187,42.4111],[-71.07216,42.41036],[-71.07362,42.4093],[-71.07374,42.40868],[-71.07269,42.40824],[-71.0713,42.40692],[-71.07345,42.40266],[-71.07599,42.39971],[-71.07642,42.39777]]]}},{"type":"Feature","properties":{"slug":"lexington","name":"Lexington"},"geometry":{"type":"Polygon","coordinates":[[[-71.2727,42.4597],[-71.26902,42.44049],[-71.26615,42.42992],[-71.26723,42.42444],[-71.21126,42.40607],[-71.19205,42.42553],[-71.18556,42.43231],[-71.18228,42.43628],[-71.17788,42.4402],[-71.18256,42.44364],[-71.18254,42.44389],[-71.18353,42.444],[-71.18395,42.44429],[-71.18381,42.44461],[-71.18571,42.445],[-71.18964,42.44983],[-71.19384,42.45314],[-71.19541,42.45359],[-71.19845,42.45698],[-71.20697,42.46362],[-71.20432,42.46584],[-71.21022,42.47073],[-71.21059,42.4676],[-71.21212,42.46624],[-71.24091,42.49001],[-71.25199,42.48502],[-71.2566,42.4785],[-71.26152,42.47625],[-71.2727,42.4597]]]}},{"type":"Feature","properties":{"slug":"peabody","name":"Peabody"},"geometry":{"type":"Polygon","coordinates":[[[-71.03485,42.5655],[-71.03156,42.5512],[-71.00529,42.52299],[-70.98705,42.51184],[-70.95714,42.49653],[-70.94994,42.49475],[-70.91979,42.52059],[-70.91886,42.52288],[-70.91773,42.52263],[-70.9171,42.52427],[-70.91799,42.52424],[-70.91831,42.52497],[-70.91648,42.52685],[-70.917,42.52709],[-70.91554,42.52882],[-70.91271,42.52806],[-70.91314,42.53161],[-70.91283,42.53239],[-70.91326,42.53258],[-70.91349,42.54147],[-70.924,42.54387],[-70.92783,42.5458],[-70.92818,42.54581],[-70.92873,42.54498],[-70.93715,42.54737],[-70.93786,42.54725],[-70.9391,42.54639],[-70.93955,42.5466],[-70.94007,42.54594],[-70.94083,42.54589],[-70.94101,42.54643],[-70.94172,42.54686],[-70.97983,42.55594],[-71.00297,42.56334],[-71.00344,42.56507],[-71.00635,42.56498],[-71.00871,42.56412],[-71.00913,42.56472],[-71.0126,42.5661],[-71.01513,42.56789],[-71.02,42.56834],[-71.02093,42.56869],[-71.0212,42.56989],[-71.02325,42.57039],[-71.02445,42.56936],[-71.02932,42.56998],[-71.02981,42.56516],[-71.03485,42.5655]]]}},{"type":"Feature","properties":{"slug":"lynn","name":"Lynn"},"geometry":{"type":"Polygon","coordinates":[[[-71.01162,42.50165],[-71.00308,42.49641],[-70.98914,42.45969],[-70.98808,42.45872],[-70.98636,42.45977],[-70.98561,42.4597],[-70.98568,42.45922],[-70.9874,42.45716],[-70.98749,42.455],[-70.98669,42.4546],[-70.98616,42.45499],[-70.98597,42.45723],[-70.98485,42.45835],[-70.98416,42.45861],[-70.98311,42.45861],[-70.97949,42.4562],[-70.97969,42.4553],[-70.98335,42.45381],[-70.98383,42.45238],[-70.9814,42.45127],[-70.97908,42.45086],[-70.96859,42.4444],[-70.96629,42.4435],[-70.95079,42.4443],[-70.94209,42.4553],[-70.93938,42.45659],[-70.93973,42.4552],[-70.93661,42.45688],[-70.93395,42.45623],[-70.90599,42.4383],[-70.90599,42.4452],[-70.90149,42.4496],[-70.92097,42.466],[-70.92141,42.46574],[-70.93411,42.49083],[-70.95714,42.49653],[-70.98691,42.51177],[-70.98934,42.51169],[-70.99297,42.51227],[-70.98837,42.50921],[-70.99531,42.50557],[-70.99689,42.50701],[-71.00174,42.50708],[-71.01162,42.50165]]]}},{"type":"Feature","properties":{"slug":"melrose","name":"Melrose"},"geometry":{"type":"Polygon","coordinates":[[[-71.08263,42.44074],[-71.08292,42.43884],[-71.02584,42.44471],[-71.05336,42.47593],[-71.06132,42.4742],[-71.06136,42.47266],[-71.0693,42.47164],[-71.07815,42.47402],[-71.07919,42.46165],[-71.08263,42.44074]]]}},{"type":"Feature","properties":{"slug":"stoneham","name":"Stoneham"},"geometry":{"type":"Polygon","coordinates":[[[-71.12168,42.49879],[-71.11679,42.49464],[-71.11206,42.47382],[-71.10952,42.47389],[-71.1194,42.45344],[-71.10487,42.44888],[-71.08212,42.44394],[-71.07919,42.46165],[-71.07771,42.47739],[-71.0766,42.47749],[-71.07524,42.48801],[-71.0855,42.49226],[-71.09011,42.50126],[-71.10073,42.50224],[-71.11976,42.50029],[-71.12168,42.49879]]]}},{"type":"Feature","properties":{"slug":"haverhill","name":"Haverhill"},"geometry":{"type":"Polygon","coordinates":[[[-71.18237,42.79436],[-71.13061,42.76078],[-71.12978,42.758],[-71.12604,42.75251],[-71.12071,42.74895],[-71.11644,42.74424],[-71.11562,42.74222],[-71.11558,42.7411],[-71.10863,42.73528],[-71.09783,42.73522],[-71.09247,42.737],[-71.09008,42.73697],[-71.08806,42.73614],[-71.08191,42.73668],[-71.07406,42.73449],[-71.07211,42.73267],[-71.05888,42.73246],[-71.05812,42.73421],[-71.05285,42.73989],[-71.04834,42.74614],[-71.04452,42.74903],[-71.0441,42.75321],[-71.04275,42.75434],[-71.04177,42.75465],[-71.04257,42.75704],[-71.04002,42.75772],[-71.03797,42.75895],[-71.03006,42.76922],[-71.02424,42.77576],[-71.0219,42.77963],[-71.02038,42.7843],[-71.01976,42.78953],[-71.01871,42.7916],[-71.01703,42.79329],[-71.01326,42.79601],[-71.00344,42.8011],[-70.99983,42.80504],[-70.99875,42.80696],[-70.99862,42.80806],[-70.99877,42.809],[-70.99961,42.81054],[-71.054,42.83328],[-71.06442,42.80627],[-71.13281,42.82148],[-71.14794,42.81618],[-71.16665,42.80888],[-71.18237,42.79436]]]}}]}